[{"OBJECT_NAME":"STARLINK-30171","OBJECT_ID":"2023-107N","EPOCH":"2026-03-09T22:00:01.999584","MEAN_MOTION":15.13070557,"ECCENTRICITY":0.0001116,"INCLINATION":43.0002,"RA_OF_ASC_NODE":336.977,"ARG_OF_PERICENTER":314.263,"MEAN_ANOMALY":147.3723,"EPHEMERIS_TYPE":0,"CLASSIFICATION_TYPE":"U","NORAD_CAT_ID":57469,"ELEMENT_SET_NO":999,"REV_AT_EPOCH":578,"BSTAR":0.0011019622,"MEAN_MOTION_DOT":0.00019669,"MEAN_MOTION_DDOT":0},{"OBJECT_NAME":"OBJECT BA","OBJECT_ID":"2018-099BA","EPOCH":"2026-03-09T15:44:21.430176","MEAN_MOTION":15.14740274,"ECCENTRICITY":0.00061825,"INCLINATION":97.413,"RA_OF_ASC_NODE":118.5956,"ARG_OF_PERICENTER":324.4238,"MEAN_ANOMALY":35.6581,"EPHEMERIS_TYPE":0,"CLASSIFICATION_TYPE":"U","NORAD_CAT_ID":43806,"ELEMENT_SET_NO":999,"REV_AT_EPOCH":39736,"BSTAR":0.00036107043,"MEAN_MOTION_DOT":6.632e-5,"MEAN_MOTION_DDOT":0}]
